{
  "links" : {
    "next" : "https://api.nasa.gov/neo/rest/v1/feed?start_date=1999-08-23&end_date=1999-08-23&detailed=true&api_key=t0TVs3DtDT2H8Oy2Zy8m2eVrNsAVKAexjcZXUckd",
    "prev" : "https://api.nasa.gov/neo/rest/v1/feed?start_date=1999-08-21&end_date=1999-08-21&detailed=true&api_key=t0TVs3DtDT2H8Oy2Zy8m2eVrNsAVKAexjcZXUckd",
    "self" : "https://api.nasa.gov/neo/rest/v1/feed?start_date=1999-08-22&end_date=1999-08-22&detailed=true&api_key=t0TVs3DtDT2H8Oy2Zy8m2eVrNsAVKAexjcZXUckd"
  },
  "element_count" : 3,
  "near_earth_objects" : {
    "1999-08-22" : [ {
      "links" : {
        "self" : "https://api.nasa.gov/neo/rest/v1/neo/3015694?api_key=t0TVs3DtDT2H8Oy2Zy8m2eVrNsAVKAexjcZXUckd"
      },
      "neo_reference_id" : "3015694",
      "name" : "(1998 VD32)",
      "nasa_jpl_url" : "http://ssd.jpl.nasa.gov/sbdb.cgi?sstr=3015694",
      "absolute_magnitude_h" : 22.2,
      "estimated_diameter" : {
        "kilometers" : {
          "estimated_diameter_min" : 0.096506147,
          "estimated_diameter_max" : 0.2157943048
        },
        "meters" : {
          "estimated_diameter_min" : 96.5061469579,
          "estimated_diameter_max" : 215.7943048444
        },
        "miles" : {
          "estimated_diameter_min" : 0.059966121,
          "estimated_diameter_max" : 0.134088323
        },
        "feet" : {
          "estimated_diameter_min" : 316.6212271853,
          "estimated_diameter_max" : 707.9865871058
        }
      },
      "is_potentially_hazardous_asteroid" : false,
      "close_approach_data" : [ {
        "close_approach_date" : "1999-08-22",
        "epoch_date_close_approach" : 935305200000,
        "relative_velocity" : {
          "kilometers_per_second" : "8.921292809",
          "kilometers_per_hour" : "32116.6541122846",
          "miles_per_hour" : "19956.0398843804"
        },
        "miss_distance" : {
          "astronomical" : "0.4337687976",
          "lunar" : "168.7360687256",
          "kilometers" : "64890892",
          "miles" : "40321332"
        },
        "orbiting_body" : "Earth"
      } ],
      "orbital_data" : {
        "orbit_id" : "8",
        "orbit_determination_date" : "2017-04-06 09:17:39",
        "orbit_uncertainty" : "8",
        "minimum_orbit_intersection" : ".0299476",
        "jupiter_tisserand_invariant" : "5.602",
        "epoch_osculation" : "2451136.5",
        "eccentricity" : ".313039479608501",
        "semi_major_axis" : "1.100386171170724",
        "inclination" : "1.959621425782594",
        "ascending_node_longitude" : "1.567944510041727",
        "orbital_period" : "421.6150573577899",
        "perihelion_distance" : ".7559218567790494",
        "perihelion_argument" : "151.5615858612084",
        "aphelion_distance" : "1.444850485562398",
        "perihelion_time" : "2451208.998947973447",
        "mean_anomaly" : "298.0960883275752",
        "mean_motion" : ".8538594476584307",
        "equinox" : "J2000"
      }
    }, {
      "links" : {
        "self" : "https://api.nasa.gov/neo/rest/v1/neo/3023165?api_key=t0TVs3DtDT2H8Oy2Zy8m2eVrNsAVKAexjcZXUckd"
      },
      "neo_reference_id" : "3023165",
      "name" : "(1999 PS3)",
      "nasa_jpl_url" : "http://ssd.jpl.nasa.gov/sbdb.cgi?sstr=3023165",
      "absolute_magnitude_h" : 21.7,
      "estimated_diameter" : {
        "kilometers" : {
          "estimated_diameter_min" : 0.1214940408,
          "estimated_diameter_max" : 0.2716689341
        },
        "meters" : {
          "estimated_diameter_min" : 121.4940407996,
          "estimated_diameter_max" : 271.6689340891
        },
        "miles" : {
          "estimated_diameter_min" : 0.0754928736,
          "estimated_diameter_max" : 0.1688071972
        },
        "feet" : {
          "estimated_diameter_min" : 398.6025088171,
          "estimated_diameter_max" : 891.3023057169
        }
      },
      "is_potentially_hazardous_asteroid" : false,
      "close_approach_data" : [ {
        "close_approach_date" : "1999-08-22",
        "epoch_date_close_approach" : 935305200000,
        "relative_velocity" : {
          "kilometers_per_second" : "6.1578820828",
          "kilometers_per_hour" : "22168.3754979988",
          "miles_per_hour" : "13774.5664309649"
        },
        "miss_distance" : {
          "astronomical" : "0.0705590058",
          "lunar" : "27.4474525452",
          "kilometers" : "10555477",
          "miles" : "6558869"
        },
        "orbiting_body" : "Earth"
      } ],
      "orbital_data" : {
        "orbit_id" : "11",
        "orbit_determination_date" : "2017-04-06 09:17:24",
        "orbit_uncertainty" : "7",
        "minimum_orbit_intersection" : ".0715296",
        "jupiter_tisserand_invariant" : "3.639",
        "epoch_osculation" : "2458000.5",
        "eccentricity" : ".4880898775447982",
        "semi_major_axis" : "2.042281426409559",
        "inclination" : "3.586304849716781",
        "ascending_node_longitude" : "256.8413358915496",
        "orbital_period" : "1066.035846124194",
        "perihelion_distance" : "1.045464535081302",
        "perihelion_argument" : "79.45226174049141",
        "aphelion_distance" : "3.039098317737817",
        "perihelion_time" : "2457816.956039035378",
        "mean_anomaly" : "61.98274306393817",
        "mean_motion" : ".3376997136717856",
        "equinox" : "J2000"
      }
    }, {
      "links" : {
        "self" : "https://api.nasa.gov/neo/rest/v1/neo/3313739?api_key=t0TVs3DtDT2H8Oy2Zy8m2eVrNsAVKAexjcZXUckd"
      },
      "neo_reference_id" : "3313739",
      "name" : "(2006 BA9)",
      "nasa_jpl_url" : "http://ssd.jpl.nasa.gov/sbdb.cgi?sstr=3313739",
      "absolute_magnitude_h" : 22.7,
      "estimated_diameter" : {
        "kilometers" : {
          "estimated_diameter_min" : 0.0766575574,
          "estimated_diameter_max" : 0.1714115092
        },
        "meters" : {
          "estimated_diameter_min" : 76.6575573531,
          "estimated_diameter_max" : 171.4115092306
        },
        "miles" : {
          "estimated_diameter_min" : 0.0476327831,
          "estimated_diameter_max" : 0.1065101409
        },
        "feet" : {
          "estimated_diameter_min" : 251.5011804664,
          "estimated_diameter_max" : 562.3737359442
        }
      },
      "is_potentially_hazardous_asteroid" : false,
      "close_approach_data" : [ {
        "close_approach_date" : "1999-08-22",
        "epoch_date_close_approach" : 935305200000,
        "relative_velocity" : {
          "kilometers_per_second" : "17.0420421543",
          "kilometers_per_hour" : "61351.3517553248",
          "miles_per_hour" : "38121.3440948573"
        },
        "miss_distance" : {
          "astronomical" : "0.4349422476",
          "lunar" : "169.1925354004",
          "kilometers" : "65066436",
          "miles" : "40430408"
        },
        "orbiting_body" : "Earth"
      } ],
      "orbital_data" : {
        "orbit_id" : "17",
        "orbit_determination_date" : "2017-04-06 09:09:18",
        "orbit_uncertainty" : "2",
        "minimum_orbit_intersection" : ".072599",
        "jupiter_tisserand_invariant" : "6.474",
        "epoch_osculation" : "2458000.5",
        "eccentricity" : ".3661669156885894",
        "semi_major_axis" : ".9123625464232695",
        "inclination" : "8.321515413904201",
        "ascending_node_longitude" : "305.8682399079674",
        "orbital_period" : "318.3094996014256",
        "perihelion_distance" : ".5782855668096735",
        "perihelion_argument" : "25.62729871351332",
        "aphelion_distance" : "1.246439526036865",
        "perihelion_time" : "2458101.270581624701",
        "mean_anomaly" : "246.0310187716127",
        "mean_motion" : "1.130974728843398",
        "equinox" : "J2000"
      }
    } ]
  }
}